{"type": "FeatureCollection", "features": [ {"type": "Feature", "properties": {"norad_id": 40115, "name": "WORLDVIEW-3 (WV-3)", "group": "resource", "lat": -36.09349157250759, "lon": 55.9169116598925, "alt_km": 619.2488573310975, "timestamp": "2025-12-03T17:47:50.369215+00:00", "meta": {"OBJECT_NAME": "WORLDVIEW-3 (WV-3)", "OBJECT_ID": "2014-048A", "EPOCH": "2025-12-03T11:29:41.285184", "MEAN_MOTION": 14.85473283, "ECCENTRICITY": 0.0004093, "INCLINATION": 97.8626, "RA_OF_ASC_NODE": 49.8755, "ARG_OF_PERICENTER": 218.132, "MEAN_ANOMALY": 141.9606, "EPHEMERIS_TYPE": 0, "CLASSIFICATION_TYPE": "U", "NORAD_CAT_ID": 40115, "ELEMENT_SET_NO": 999, "REV_AT_EPOCH": 61286, "BSTAR": 0.00021576, "MEAN_MOTION_DOT": 1.808e-05, "MEAN_MOTION_DDOT": 0}, "tle": {"line1": "1 40115U 14048A   25337.47895006  .00001808  00000+0  21576-3 0  9997", "line2": "2 40115  97.8626  49.8755 0004093 218.1320 141.9606 14.85473283612867"}}, "geometry": {"type": "Point", "coordinates": [55.9169116598925, -36.09349157250759]}}, {"type": "Feature", "properties": {"norad_id": 40118, "name": "GAOFEN-2", "group": "resource", "lat": -59.77935241589381, "lon": 50.93712832659917, "alt_km": 640.0467228306852, "timestamp": "2025-12-03T17:47:50.369226+00:00", "meta": {"OBJECT_NAME": "GAOFEN-2", "OBJECT_ID": "2014-049A", "EPOCH": "2025-12-03T11:35:02.133312", "MEAN_MOTION": 14.80581481, "ECCENTRICITY": 0.0008202, "INCLINATION": 98.0398, "RA_OF_ASC_NODE": 36.6346, "ARG_OF_PERICENTER": 139.6253, "MEAN_ANOMALY": 220.5569, "EPHEMERIS_TYPE": 0, "CLASSIFICATION_TYPE": "U", "NORAD_CAT_ID": 40118, "ELEMENT_SET_NO": 999, "REV_AT_EPOCH": 61027, "BSTAR": 0.0001597, "MEAN_MOTION_DOT": 1.172e-05, "MEAN_MOTION_DDOT": 0}, "tle": {"line1": "1 40118U 14049A   25337.48266358  .00001172  00000+0  15970-3 0  9999", "line2": "2 40118  98.0398  36.6346 0008202 139.6253 220.5569 14.80581481610277"}}, "geometry": {"type": "Point", "coordinates": [50.93712832659917, -59.77935241589381]}}, {"type": "Feature", "properties": {"norad_id": 40143, "name": "YAOGAN-21", "group": "resource", "lat": -47.15507651117718, "lon": 29.255746229150358, "alt_km": 505.2961545049711, "timestamp": "2025-12-03T17:47:50.369237+00:00", "meta": {"OBJECT_NAME": "YAOGAN-21", "OBJECT_ID": "2014-053A", "EPOCH": "2025-12-03T11:42:02.721600", "MEAN_MOTION": 15.23491007, "ECCENTRICITY": 0.0010223, "INCLINATION": 97.1775, "RA_OF_ASC_NODE": 21.2036, "ARG_OF_PERICENTER": 69.8024, "MEAN_ANOMALY": 290.4312, "EPHEMERIS_TYPE": 0, "CLASSIFICATION_TYPE": "U", "NORAD_CAT_ID": 40143, "ELEMENT_SET_NO": 999, "REV_AT_EPOCH": 62513, "BSTAR": 0.00052652, "MEAN_MOTION_DOT": 0.00012522, "MEAN_MOTION_DDOT": 0}, "tle": {"line1": "1 40143U 14053A   25337.48753150  .00012522  00000+0  52652-3 0  9992", "line2": "2 40143  97.1775  21.2036 0010223  69.8024 290.4312 15.23491007625131"}}, "geometry": {"type": "Point", "coordinates": [29.255746229150358, -47.15507651117718]}}, {"type": "Feature", "properties": {"norad_id": 40275, "name": "YAOGAN-22", "group": "resource", "lat": 35.39523498170238, "lon": 113.28283120632356, "alt_km": 1201.896799031514, "timestamp": "2025-12-03T17:47:50.369247+00:00", "meta": {"OBJECT_NAME": "YAOGAN-22", "OBJECT_ID": "2014-063A", "EPOCH": "2025-12-03T08:29:16.965312", "MEAN_MOTION": 13.15522307, "ECCENTRICITY": 0.0005877, "INCLINATION": 100.7418, "RA_OF_ASC_NODE": 120.6409, "ARG_OF_PERICENTER": 270.8741, "MEAN_ANOMALY": 89.1697, "EPHEMERIS_TYPE": 0, "CLASSIFICATION_TYPE": "U", "NORAD_CAT_ID": 40275, "ELEMENT_SET_NO": 999, "REV_AT_EPOCH": 53406, "BSTAR": 0.00015567, "MEAN_MOTION_DOT": 1.2e-07, "MEAN_MOTION_DDOT": 0}, "tle": {"line1": "1 40275U 14063A   25337.35366858  .00000012  00000+0  15567-3 0  9995", "line2": "2 40275 100.7418 120.6409 0005877 270.8741  89.1697 13.15522307534066"}}, "geometry": {"type": "Point", "coordinates": [113.28283120632356, 35.39523498170238]}}, {"type": "Feature", "properties": {"norad_id": 40298, "name": "ASNARO", "group": "resource", "lat": 41.961085746211396, "lon": -119.40893700980504, "alt_km": 501.48822739155185, "timestamp": "2025-12-03T17:47:50.369257+00:00", "meta": {"OBJECT_NAME": "ASNARO", "OBJECT_ID": "2014-070A", "EPOCH": "2025-12-03T12:27:05.918400", "MEAN_MOTION": 15.19177976, "ECCENTRICITY": 0.0005135, "INCLINATION": 97.367, "RA_OF_ASC_NODE": 53.6931, "ARG_OF_PERICENTER": 148.8413, "MEAN_ANOMALY": 211.3127, "EPHEMERIS_TYPE": 0, "CLASSIFICATION_TYPE": "U", "NORAD_CAT_ID": 40298, "ELEMENT_SET_NO": 999, "REV_AT_EPOCH": 61429, "BSTAR": 0.00068153, "MEAN_MOTION_DOT": 0.00014289, "MEAN_MOTION_DDOT": 0}, "tle": {"line1": "1 40298U 14070A   25337.51881850  .00014289  00000+0  68153-3 0  9990", "line2": "2 40298  97.3670  53.6931 0005135 148.8413 211.3127 15.19177976614299"}}, "geometry": {"type": "Point", "coordinates": [-119.40893700980504, 41.961085746211396]}}, {"type": "Feature", "properties": {"norad_id": 40310, "name": "YAOGAN-24", "group": "resource", "lat": 64.86643174905838, "lon": 91.0657070490703, "alt_km": 636.8656194376354, "timestamp": "2025-12-03T17:47:50.369268+00:00", "meta": {"OBJECT_NAME": "YAOGAN-24", "OBJECT_ID": "2014-072A", "EPOCH": "2025-12-03T12:37:03.848736", "MEAN_MOTION": 14.76144725, "ECCENTRICITY": 0.0014262, "INCLINATION": 98.1218, "RA_OF_ASC_NODE": 108.5704, "ARG_OF_PERICENTER": 166.601, "MEAN_ANOMALY": 193.558, "EPHEMERIS_TYPE": 0, "CLASSIFICATION_TYPE": "U", "NORAD_CAT_ID": 40310, "ELEMENT_SET_NO": 999, "REV_AT_EPOCH": 59485, "BSTAR": 0.00022715, "MEAN_MOTION_DOT": 1.519e-05, "MEAN_MOTION_DDOT": 0}, "tle": {"line1": "1 40310U 14072A   25337.52573899  .00001519  00000+0  22715-3 0  9995", "line2": "2 40310  98.1218 108.5704 0014262 166.6010 193.5580 14.76144725594852"}}, "geometry": {"type": "Point", "coordinates": [91.0657070490703, 64.86643174905838]}}, {"type": "Feature", "properties": {"norad_id": 40336, "name": "CBERS 4", "group": "resource", "lat": 40.930917162606, "lon": 28.76454461187889, "alt_km": 769.9365229607829, "timestamp": "2025-12-03T17:47:50.369278+00:00", "meta": {"OBJECT_NAME": "CBERS 4", "OBJECT_ID": "2014-079A", "EPOCH": "2025-12-03T12:35:10.785696", "MEAN_MOTION": 14.35528278, "ECCENTRICITY": 0.0001458, "INCLINATION": 98.3322, "RA_OF_ASC_NODE": 35.8561, "ARG_OF_PERICENTER": 126.6223, "MEAN_ANOMALY": 233.5097, "EPHEMERIS_TYPE": 0, "CLASSIFICATION_TYPE": "U", "NORAD_CAT_ID": 40336, "ELEMENT_SET_NO": 999, "REV_AT_EPOCH": 57588, "BSTAR": 0.00010456, "MEAN_MOTION_DOT": 2.59e-06, "MEAN_MOTION_DDOT": 0}, "tle": {"line1": "1 40336U 14079A   25337.52443039  .00000259  00000+0  10456-3 0  9991", "line2": "2 40336  98.3322  35.8561 0001458 126.6223 233.5097 14.35528278575880"}}, "geometry": {"type": "Point", "coordinates": [28.76454461187889, 40.930917162606]}}, {"type": "Feature", "properties": {"norad_id": 40362, "name": "YAOGAN-26", "group": "resource", "lat": -66.23007018663841, "lon": 142.38710125748554, "alt_km": 461.7988269338075, "timestamp": "2025-12-03T17:47:50.369290+00:00", "meta": {"OBJECT_NAME": "YAOGAN-26", "OBJECT_ID": "2014-088A", "EPOCH": "2025-12-03T13:36:18.261792", "MEAN_MOTION": 15.38792214, "ECCENTRICITY": 0.0007314, "INCLINATION": 97.0637, "RA_OF_ASC_NODE": 338.5714, "ARG_OF_PERICENTER": 54.828, "MEAN_ANOMALY": 305.365, "EPHEMERIS_TYPE": 0, "CLASSIFICATION_TYPE": "U", "NORAD_CAT_ID": 40362, "ELEMENT_SET_NO": 999, "REV_AT_EPOCH": 60753, "BSTAR": 0.00064216, "MEAN_MOTION_DOT": 0.0002462, "MEAN_MOTION_DDOT": 0}, "tle": {"line1": "1 40362U 14088A   25337.56687803  .00024620  00000+0  64216-3 0  9994", "line2": "2 40362  97.0637 338.5714 0007314  54.8280 305.3650 15.38792214607537"}}, "geometry": {"type": "Point", "coordinates": [142.38710125748554, -66.23007018663841]}}, {"type": "Feature", "properties": {"norad_id": 40376, "name": "SMAP", "group": "resource", "lat": 63.32474811254267, "lon": -33.93386803892489, "alt_km": 675.4774572169381, "timestamp": "2025-12-03T17:47:50.369301+00:00", "meta": {"OBJECT_NAME": "SMAP", "OBJECT_ID": "2015-003A", "EPOCH": "2025-12-03T10:56:21.564096", "MEAN_MOTION": 14.63325572, "ECCENTRICITY": 0.0001214, "INCLINATION": 98.1292, "RA_OF_ASC_NODE": 342.3136, "ARG_OF_PERICENTER": 86.9581, "MEAN_ANOMALY": 273.176, "EPHEMERIS_TYPE": 0, "CLASSIFICATION_TYPE": "U", "NORAD_CAT_ID": 40376, "ELEMENT_SET_NO": 999, "REV_AT_EPOCH": 57899, "BSTAR": 0.00017595, "MEAN_MOTION_DOT": 8.61e-06, "MEAN_MOTION_DDOT": 0}, "tle": {"line1": "1 40376U 15003A   25337.45580514  .00000861  00000+0  17595-3 0  9995", "line2": "2 40376  98.1292 342.3136 0001214  86.9581 273.1760 14.63325572578992"}}, "geometry": {"type": "Point", "coordinates": [-33.93386803892489, 63.32474811254267]}}, {"type": "Feature", "properties": {"norad_id": 40536, "name": "KOMPSAT-3A", "group": "resource", "lat": 36.64144075160799, "lon": -54.16317505989335, "alt_km": 434.30949676963337, "timestamp": "2025-12-03T17:47:50.369311+00:00", "meta": {"OBJECT_NAME": "KOMPSAT-3A", "OBJECT_ID": "2015-014A", "EPOCH": "2025-12-03T11:24:48.256128", "MEAN_MOTION": 15.43424704, "ECCENTRICITY": 0.0003795, "INCLINATION": 97.6772, "RA_OF_ASC_NODE": 311.3148, "ARG_OF_PERICENTER": 146.9372, "MEAN_ANOMALY": 213.2113, "EPHEMERIS_TYPE": 0, "CLASSIFICATION_TYPE": "U", "NORAD_CAT_ID": 40536, "ELEMENT_SET_NO": 999, "REV_AT_EPOCH": 59152, "BSTAR": 0.00056183, "MEAN_MOTION_DOT": 0.00025077, "MEAN_MOTION_DDOT": 0}, "tle": {"line1": "1 40536U 15014A   25337.47555852  .00025077  00000+0  56183-3 0  9996", "line2": "2 40536  97.6772 311.3148 0003795 146.9372 213.2113 15.43424704591524"}}, "geometry": {"type": "Point", "coordinates": [-54.16317505989335, 36.64144075160799]}}]}